{
 "generated_at": "2026-07-20T08:05:52Z",
 "sources": [
  {
   "name": "CelesTrak",
   "url": "https://celestrak.org/NORAD/elements/",
   "license": "frei verfügbar; Attribution. Ursprünglich USSPACECOM/Space-Track."
  },
  {
   "name": "GCAT (J. McDowell, planet4589.org)",
   "url": "https://planet4589.org/space/gcat/",
   "license": "CC-BY 4.0"
  }
 ],
 "satellites": [
  {
   "norad": 56963,
   "name": "ICEYE-X25",
   "intl": "2023-084AH",
   "group": "sar",
   "gcat": {
    "class": "B",
    "category": "IMG-R",
    "owner": "ICEYE",
    "state": "FI"
   },
   "omm": {
    "OBJECT_NAME": "ICEYE-X25",
    "OBJECT_ID": "2023-084AH",
    "EPOCH": "2026-07-19T20:41:43.867392",
    "MEAN_MOTION": 15.63014749,
    "ECCENTRICITY": 0.0004584,
    "INCLINATION": 97.592,
    "RA_OF_ASC_NODE": 349.4415,
    "ARG_OF_PERICENTER": 170.4023,
    "MEAN_ANOMALY": 189.7324,
    "EPHEMERIS_TYPE": 0,
    "CLASSIFICATION_TYPE": "U",
    "NORAD_CAT_ID": 56963,
    "ELEMENT_SET_NO": 999,
    "REV_AT_EPOCH": 17307,
    "BSTAR": 0.00018923,
    "MEAN_MOTION_DOT": 0.00017059,
    "MEAN_MOTION_DDOT": 0
   }
  },
  {
   "norad": 58288,
   "name": "ICEYE-X31",
   "intl": "2023-174AJ",
   "group": "sar",
   "gcat": {
    "class": "B",
    "category": "IMG-R",
    "owner": "ICEYE",
    "state": "FI"
   },
   "omm": {
    "OBJECT_NAME": "ICEYE-X31",
    "OBJECT_ID": "2023-174AJ",
    "EPOCH": "2026-07-19T20:45:55.154016",
    "MEAN_MOTION": 15.35265489,
    "ECCENTRICITY": 0.0003165,
    "INCLINATION": 97.3763,
    "RA_OF_ASC_NODE": 276.6173,
    "ARG_OF_PERICENTER": 173.3764,
    "MEAN_ANOMALY": 186.7522,
    "EPHEMERIS_TYPE": 0,
    "CLASSIFICATION_TYPE": "U",
    "NORAD_CAT_ID": 58288,
    "ELEMENT_SET_NO": 999,
    "REV_AT_EPOCH": 14976,
    "BSTAR": 0.00028062,
    "MEAN_MOTION_DOT": 0.00009531,
    "MEAN_MOTION_DDOT": 0
   }
  },
  {
   "norad": 60548,
   "name": "ICEYE-X33",
   "intl": "2024-149CJ",
   "group": "sar",
   "gcat": {
    "class": "B",
    "category": "IMG-R",
    "owner": "ICEUS/ICEYE",
    "state": "US"
   },
   "omm": {
    "OBJECT_NAME": "ICEYE-X33",
    "OBJECT_ID": "2024-149CJ",
    "EPOCH": "2026-07-19T18:28:44.088672",
    "MEAN_MOTION": 15.00907978,
    "ECCENTRICITY": 0.0001854,
    "INCLINATION": 97.7376,
    "RA_OF_ASC_NODE": 279.75,
    "ARG_OF_PERICENTER": 69.9936,
    "MEAN_ANOMALY": 290.1487,
    "EPHEMERIS_TYPE": 0,
    "CLASSIFICATION_TYPE": "U",
    "NORAD_CAT_ID": 60548,
    "ELEMENT_SET_NO": 999,
    "REV_AT_EPOCH": 10509,
    "BSTAR": 0.00019583,
    "MEAN_MOTION_DOT": 0.00002433,
    "MEAN_MOTION_DDOT": 0
   }
  },
  {
   "norad": 58294,
   "name": "ICEYE-X34",
   "intl": "2023-174AQ",
   "group": "sar",
   "gcat": {
    "class": "B",
    "category": "IMG-R",
    "owner": "ICEUS",
    "state": "US"
   },
   "omm": {
    "OBJECT_NAME": "ICEYE-X34",
    "OBJECT_ID": "2023-174AQ",
    "EPOCH": "2026-07-19T18:39:37.719360",
    "MEAN_MOTION": 15.72318528,
    "ECCENTRICITY": 0.0002147,
    "INCLINATION": 97.3849,
    "RA_OF_ASC_NODE": 293.711,
    "ARG_OF_PERICENTER": 222.6729,
    "MEAN_ANOMALY": 137.4368,
    "EPHEMERIS_TYPE": 0,
    "CLASSIFICATION_TYPE": "U",
    "NORAD_CAT_ID": 58294,
    "ELEMENT_SET_NO": 999,
    "REV_AT_EPOCH": 15085,
    "BSTAR": 0.00085215,
    "MEAN_MOTION_DOT": 0.00113841,
    "MEAN_MOTION_DDOT": 0
   }
  },
  {
   "norad": 58302,
   "name": "ICEYE-X35",
   "intl": "2023-174AY",
   "group": "sar",
   "gcat": {
    "class": "B",
    "category": "IMG-R",
    "owner": "ICEYE",
    "state": "FI"
   },
   "omm": {
    "OBJECT_NAME": "ICEYE-X35",
    "OBJECT_ID": "2023-174AY",
    "EPOCH": "2026-07-19T21:17:41.362656",
    "MEAN_MOTION": 15.55479357,
    "ECCENTRICITY": 0.0007356,
    "INCLINATION": 97.3775,
    "RA_OF_ASC_NODE": 286.4351,
    "ARG_OF_PERICENTER": 92.3696,
    "MEAN_ANOMALY": 267.84,
    "EPHEMERIS_TYPE": 0,
    "CLASSIFICATION_TYPE": "U",
    "NORAD_CAT_ID": 58302,
    "ELEMENT_SET_NO": 999,
    "REV_AT_EPOCH": 15042,
    "BSTAR": 0.0004778,
    "MEAN_MOTION_DOT": 0.00032616,
    "MEAN_MOTION_DDOT": 0
   }
  },
  {
   "norad": 59103,
   "name": "ICEYE-X36",
   "intl": "2024-043F",
   "group": "sar",
   "gcat": {
    "class": "B",
    "category": "IMG-R",
    "owner": "ICEUS",
    "state": "US"
   },
   "omm": {
    "OBJECT_NAME": "ICEYE-X36",
    "OBJECT_ID": "2024-043F",
    "EPOCH": "2026-07-19T20:24:01.309824",
    "MEAN_MOTION": 15.07254996,
    "ECCENTRICITY": 0.0005652,
    "INCLINATION": 97.8408,
    "RA_OF_ASC_NODE": 339.5153,
    "ARG_OF_PERICENTER": 196.0546,
    "MEAN_ANOMALY": 164.0502,
    "EPHEMERIS_TYPE": 0,
    "CLASSIFICATION_TYPE": "U",
    "NORAD_CAT_ID": 59103,
    "ELEMENT_SET_NO": 999,
    "REV_AT_EPOCH": 13006,
    "BSTAR": 0.00014163,
    "MEAN_MOTION_DOT": 0.0000207,
    "MEAN_MOTION_DDOT": 0
   }
  },
  {
   "norad": 59102,
   "name": "ICEYE-X37",
   "intl": "2024-043E",
   "group": "sar",
   "gcat": {
    "class": "B",
    "category": "IMG-R",
    "owner": "ICEUS",
    "state": "US"
   },
   "omm": {
    "OBJECT_NAME": "ICEYE-X37",
    "OBJECT_ID": "2024-043E",
    "EPOCH": "2026-07-19T17:35:03.172704",
    "MEAN_MOTION": 15.06308896,
    "ECCENTRICITY": 0.0013932,
    "INCLINATION": 97.8349,
    "RA_OF_ASC_NODE": 338.2557,
    "ARG_OF_PERICENTER": 257.2403,
    "MEAN_ANOMALY": 102.7267,
    "EPHEMERIS_TYPE": 0,
    "CLASSIFICATION_TYPE": "U",
    "NORAD_CAT_ID": 59102,
    "ELEMENT_SET_NO": 999,
    "REV_AT_EPOCH": 12998,
    "BSTAR": 0.0001499,
    "MEAN_MOTION_DOT": 0.00002141,
    "MEAN_MOTION_DDOT": 0
   }
  },
  {
   "norad": 59100,
   "name": "ICEYE-X38",
   "intl": "2024-043C",
   "group": "sar",
   "gcat": {
    "class": "B",
    "category": "IMG-R",
    "owner": "ICEYE",
    "state": "FI"
   },
   "omm": {
    "OBJECT_NAME": "ICEYE-X38",
    "OBJECT_ID": "2024-043C",
    "EPOCH": "2026-07-19T20:30:36.391104",
    "MEAN_MOTION": 15.13113699,
    "ECCENTRICITY": 0.0001944,
    "INCLINATION": 97.8445,
    "RA_OF_ASC_NODE": 345.5131,
    "ARG_OF_PERICENTER": 7.0288,
    "MEAN_ANOMALY": 353.0969,
    "EPHEMERIS_TYPE": 0,
    "CLASSIFICATION_TYPE": "U",
    "NORAD_CAT_ID": 59100,
    "ELEMENT_SET_NO": 999,
    "REV_AT_EPOCH": 11661,
    "BSTAR": 0.00011687,
    "MEAN_MOTION_DOT": 0.00002,
    "MEAN_MOTION_DDOT": 0
   }
  },
  {
   "norad": 60546,
   "name": "ICEYE-X39",
   "intl": "2024-149CG",
   "group": "sar",
   "gcat": {
    "class": "B",
    "category": "IMG-R",
    "owner": "FAB/ICEYE",
    "state": "BR"
   },
   "omm": {
    "OBJECT_NAME": "ICEYE-X39",
    "OBJECT_ID": "2024-149CG",
    "EPOCH": "2026-07-19T18:20:14.879040",
    "MEAN_MOTION": 15.0009333,
    "ECCENTRICITY": 0.0006792,
    "INCLINATION": 97.6799,
    "RA_OF_ASC_NODE": 277.3506,
    "ARG_OF_PERICENTER": 33.8066,
    "MEAN_ANOMALY": 326.3589,
    "EPHEMERIS_TYPE": 0,
    "CLASSIFICATION_TYPE": "U",
    "NORAD_CAT_ID": 60546,
    "ELEMENT_SET_NO": 999,
    "REV_AT_EPOCH": 10500,
    "BSTAR": 0.0001763,
    "MEAN_MOTION_DOT": 0.00002139,
    "MEAN_MOTION_DDOT": 0
   }
  },
  {
   "norad": 44390,
   "name": "ICEYE-X4",
   "intl": "2019-038D",
   "group": "sar",
   "gcat": {
    "class": "B",
    "category": "IMG-R",
    "owner": "ICEYE",
    "state": "FI"
   },
   "omm": {
    "OBJECT_NAME": "ICEYE-X4",
    "OBJECT_ID": "2019-038D",
    "EPOCH": "2026-07-19T20:10:33.873312",
    "MEAN_MOTION": 15.29940605,
    "ECCENTRICITY": 0.0013365,
    "INCLINATION": 97.8745,
    "RA_OF_ASC_NODE": 235.6872,
    "ARG_OF_PERICENTER": 181.7177,
    "MEAN_ANOMALY": 178.4018,
    "EPHEMERIS_TYPE": 0,
    "CLASSIFICATION_TYPE": "U",
    "NORAD_CAT_ID": 44390,
    "ELEMENT_SET_NO": 999,
    "REV_AT_EPOCH": 38679,
    "BSTAR": 0.00022441,
    "MEAN_MOTION_DOT": 0.00006436,
    "MEAN_MOTION_DDOT": 0
   }
  }
 ]
}
