ICEYE-X4                
1 44390U 19038D   26200.84066983  .00006436  00000+0  22441-3 0  9999
2 44390  97.8745 235.6872 0013365 181.7177 178.4018 15.29940605386798
ICEYE-X25               
1 56963U 23084AH  26200.86231328  .00017059  00000+0  18923-3 0  9996
2 56963  97.5920 349.4415 0004584 170.4023 189.7324 15.63014749173073
ICEYE-X31               
1 58288U 23174AJ  26200.86522169  .00009531  00000+0  28062-3 0  9995
2 58288  97.3763 276.6173 0003165 173.3764 186.7522 15.35265489149762
ICEYE-X34               
1 58294U 23174AQ  26200.77751990  .00113841  00000+0  85215-3 0  9991
2 58294  97.3849 293.7110 0002147 222.6729 137.4368 15.72318528150850
ICEYE-X35               
1 58302U 23174AY  26200.88728429  .00032616  00000+0  47780-3 0  9999
2 58302  97.3775 286.4351 0007356  92.3696 267.8400 15.55479357150423
ICEYE-X38               
1 59100U 24043C   26200.85458786  .00002000  00000+0  11687-3 0  9996
2 59100  97.8445 345.5131 0001944   7.0288 353.0969 15.13113699116618
ICEYE-X37               
1 59102U 24043E   26200.73267561  .00002141  00000+0  14990-3 0  9990
2 59102  97.8349 338.2557 0013932 257.2403 102.7267 15.06308896129983
ICEYE-X36               
1 59103U 24043F   26200.85001516  .00002070  00000+0  14163-3 0  9993
2 59103  97.8408 339.5153 0005652 196.0546 164.0502 15.07254996130060
ICEYE-X39               
1 60546U 24149CG  26200.76406110  .00002139  00000+0  17630-3 0  9990
2 60546  97.6799 277.3506 0006792  33.8066 326.3589 15.00093330105006
ICEYE-X33               
1 60548U 24149CJ  26200.76995473  .00002433  00000+0  19583-3 0  9993
2 60548  97.7376 279.7500 0001854  69.9936 290.1487 15.00907978105096
